GPS BIIF-11             
1 41019U 15062A   26116.92377529 -.00000103  00000+0  00000+0 0  9992
2 41019  56.9271  32.7864 0111255 231.5148 127.4874  2.00567014 76805
ELEKTRO-L 2             
1 41105U 15074A   26117.06150145 -.00000123  00000+0  00000+0 0  9992
2 41105   6.5682  71.1388 0002270 256.8337 254.7105  1.00270643 37998
GSAT0209 (GALILEO 12)   
1 41174U 15079A   26115.24610591  .00000046  00000+0  00000+0 0  9990
2 41174  55.7962 102.7123 0005679 329.0159  30.9454  1.70474059 63871
GSAT0208 (GALILEO 11)   
1 41175U 15079B   26116.05295675  .00000046  00000+0  00000+0 0  9993
2 41175  55.7944 102.6873 0005050 330.1145  29.8515  1.70473954 64301
GPS BIIF-12             
1 41328U 16007A   26117.01161555  .00000028  00000+0  00000+0 0  9991
2 41328  55.4930  91.4870 0096121 247.0983 111.8712  2.00554124 74811
GSAT0211 (GALILEO 14)   
1 41549U 16030A   26114.41727357 -.00000030  00000+0  00000+0 0  9995
2 41549  55.1119 223.1731 0002524 359.1559   0.8397  1.70474087 61750
GSAT0210 (GALILEO 13)   
1 41550U 16030B   26115.26112393 -.00000036  00000+0  00000+0 0  9995
2 41550  55.1104 223.1480 0002810 225.6811 134.2889  1.70474037 61767
INSAT-3DR               
1 41752U 16054A   26117.11850242 -.00000087  00000+0  00000+0 0  9999
2 41752   0.1158  86.2632 0011561 195.0762  50.4223  1.00271598 35307
GSAT0207 (GALILEO 15)   
1 41859U 16069A   26116.71252252  .00000043  00000+0  00000+0 0  9996
2 41859  55.4671 102.5088 0005912 317.1917  42.7559  1.70473995 58524
GSAT0212 (GALILEO 16)   
1 41860U 16069B   26115.97942788  .00000045  00000+0  00000+0 0  9997
2 41860  55.4638 102.5243 0004656 340.7517  19.2254  1.70474171 58768
GSAT0213 (GALILEO 17)   
1 41861U 16069C   26116.93335348  .00000042  00000+0  00000+0 0  9990
2 41861  55.4672 102.5058 0005848 302.6930  57.2437  1.70474535 58647
GSAT0214 (GALILEO 18)   
1 41862U 16069D   26115.90630783  .00000045  00000+0  00000+0 0  9991
2 41862  55.4649 102.5269 0004911 307.4506  52.4995  1.70474260 58751
GOES 16                 
1 41866U 16071A   26117.27828214 -.00000100  00000+0  00000+0 0  9991
2 41866   0.2140  85.2978 0001479 251.8277 233.6094  1.00271264 34597
GSAT-17                 
1 42815U 17040B   26117.18030694 -.00000269  00000+0  00000+0 0  9996
2 42815   0.0204 251.0805 0004257  66.2560  56.2638  1.00274035 32278
GSAT0215 (GALILEO 19)   
1 43055U 17079A   26113.46347810 -.00000022  00000+0  00000+0 0  9990
2 43055  55.0907 223.0118 0001428 264.4741  95.5096  1.70474699 52058
GSAT0216 (GALILEO 20)   
1 43056U 17079B   26114.92781412 -.00000034  00000+0  00000+0 0  9996
2 43056  55.0895 222.9715 0002775 284.1808  75.7828  1.70474805 52091
GSAT0217 (GALILEO 21)   
1 43057U 17079C   26116.32174354 -.00000039  00000+0  00000+0 0  9999
2 43057  55.0878 222.9311 0002278 305.0014  54.9682  1.70474773 52108
